OBJECT_NAME,OBJECT_ID,EPOCH,MEAN_MOTION,ECCENTRICITY,INCLINATION,RA_OF_ASC_NODE,ARG_OF_PERICENTER,MEAN_ANOMALY,EPHEMERIS_TYPE,CLASSIFICATION_TYPE,NORAD_CAT_ID,ELEMENT_SET_NO,REV_AT_EPOCH,BSTAR,MEAN_MOTION_DOT,MEAN_MOTION_DDOT
OSCAR 7 (AO-7),1974-089B,2026-07-19T07:03:13.239936,12.53698642,.00126398,101.9907,213.8752,70.7839,316.5159,0,U,7530,999,36454,-.6591926E-5,-.47E-6,0
PHASE 3B (AO-10),1983-058B,2026-07-17T23:01:24.898944,2.05871393,.60006144,25.9392,214.4954,124.1231,307.7423,0,U,14129,999,29612,0,-.201E-5,0
UOSAT 2 (UO-11),1984-021B,2026-07-18T21:37:53.079456,14.90853808,.00092349,97.8079,165.1270,81.1376,279.0887,0,U,14781,999,26185,.6589185E-4,.593E-5,0
LUSAT (LO-19),1990-005G,2026-07-18T23:54:49.010976,14.34131374,.00126211,98.8846,222.6774,111.2051,249.0482,0,U,20442,999,90695,.24885951E-4,.23E-6,0
EYESAT A (AO-27),1993-061C,2026-07-19T03:57:13.631904,14.30949715,.00085393,98.6864,267.5640,14.7402,345.4028,0,U,22825,999,71157,.27887679E-4,.29E-6,0
ITAMSAT (IO-26),1993-061D,2026-07-19T03:13:50.092320,14.31377398,.00087134,98.6813,267.4547,357.6631,2.4509,0,U,22826,999,71188,.26963835E-4,.27E-6,0
RADIO ROSTO (RS15),1994-085A,2026-07-19T05:18:51.564096,11.27583551,.01570732,64.8144,251.4089,357.9682,2.0587,0,U,23439,999,29951,.12722161E-3,-.38E-6,0
JAS-2 (FO-29),1996-046B,2026-07-19T02:27:08.928288,13.53275823,.03501738,98.5218,44.5993,13.8163,347.2268,0,U,24278,999,47748,-.532005E-5,-.41E-6,0
TECHSAT 1B (GO-32),1998-043D,2026-07-19T05:39:17.284608,14.24433774,.00022896,99.0088,193.8054,108.9690,251.1736,0,U,25397,999,45589,.19587566E-4,-.1E-7,0
ISS (ZARYA),1998-067A,2026-07-19T04:27:19.257120,15.49047695,.00067979,51.6318,141.7399,313.2287,46.8133,0,U,25544,999,57671,.82168399E-4,.4087E-4,0
PCSAT (NO-44),2001-043C,2026-07-19T06:54:49.665312,14.31965883,.00058705,67.0498,161.2434,266.8644,93.1786,0,U,26931,999,29504,.40156995E-4,.25E-6,0
SAUDISAT 1C (SO-50),2002-058C,2026-07-18T21:57:58.675680,14.83102458,.00744132,64.5520,30.8141,256.5934,102.6870,0,U,27607,999,26916,.63019282E-4,.381E-5,0
CUTE-1 (CO-55),2003-031E,2026-07-18T23:59:43.619424,14.24352932,.00108657,98.6744,208.1594,92.9112,267.3310,0,U,27844,999,19620,.72663847E-4,.124E-5,0
CUBESAT XI-IV (CO-57),2003-031J,2026-07-19T00:06:08.229024,14.23635739,.00106445,98.6776,207.8508,109.4157,250.8172,0,U,27848,999,19590,.63832008E-4,.102E-5,0
MOZHAETS 4 (RS22),2003-042A,2026-07-19T08:14:27.255264,14.73517034,.00115484,98.3477,25.6122,160.2032,321.9217,0,U,27939,999,22028,.22796249E-4,.94E-6,0
CUBESAT XI-V,2005-043F,2026-07-18T22:17:31.648128,14.72707615,.00153304,98.3021,356.2245,104.4100,255.8810,0,U,28895,999,10642,.10735875E-3,.633E-5,0
CUTE-1.7+APD II (CO-65),2008-021C,2026-07-19T06:20:12.940224,15.09720397,.00068284,97.8299,182.3602,282.4955,77.5509,0,U,32785,999,99003,.12557037E-3,.1957E-4,0
SEEDS II (CO-66),2008-021J,2026-07-18T23:35:39.846912,15.33744548,.00035079,97.7533,199.4257,148.4527,211.6925,0,U,32791,999,99216,.30294026E-3,.9804E-4,0
YUBILEINY (RS30),2008-025A,2026-07-19T06:57:09.673056,12.43180945,.00187142,82.5071,335.4698,239.5456,120.3776,0,U,32953,999,82368,.47510718E-3,.76E-6,0
KKS-1 (KISEKI),2009-002H,2026-07-19T05:38:02.969376,14.83194466,.00077562,98.1171,123.1847,175.6616,184.4666,0,U,33499,999,94094,.8104797E-4,.606E-5,0
SWISSCUBE,2009-051B,2026-07-19T04:29:49.665696,14.62534889,.00080029,98.4003,108.6297,108.4098,251.7974,0,U,35932,999,89383,.97057674E-4,.443E-5,0
BEESAT-1,2009-051C,2026-07-19T05:07:31.917504,14.61765362,.00063257,98.3928,108.2244,119.4763,240.7069,0,U,35933,999,89386,.82911193E-4,.364E-5,0
ITUPSAT1,2009-051E,2026-07-18T16:25:36.806592,14.60481463,.00082886,98.4014,106.8454,133.4128,226.7763,0,U,35935,999,89333,.75415059E-4,.317E-5,0
XIWANG-1 (HOPE-1),2009-072B,2026-07-19T07:34:19.896384,13.16439937,.0007663,100.4043,153.6372,155.6615,204.4861,0,U,36122,999,79723,.45938979E-3,.131E-5,0
O/OREOS (USA 219),2010-062C,2026-07-18T20:54:51.786144,14.93859325,.00142181,71.9700,8.5594,357.9749,2.1362,0,U,37224,999,12137,.9746043E-4,.973E-5,0
JUGNU,2011-058B,2026-07-19T02:54:45.058176,14.13784159,.00186212,19.9601,114.4089,69.5646,319.8172,0,U,37839,999,76355,.4449662E-4,.352E-5,0
SRMSAT,2011-058D,2026-07-19T07:43:04.918080,14.11581571,.00116321,19.9703,224.9688,196.6328,264.6443,0,U,37841,999,76236,.31720622E-4,.324E-5,0
STRAND-1,2013-009E,2026-07-19T06:58:36.329664,14.37180228,.00096042,98.3938,19.7374,130.0819,230.1212,0,U,39090,999,70167,.52406459E-4,.113E-5,0
ZACUBE-1 (TSHEPISOSAT),2013-066B,2026-07-18T20:48:28.769760,15.01338468,.00440642,97.8003,162.3585,143.4154,217.0094,0,U,39417,999,68548,.10186605E-3,.1274E-4,0
GOMX-1,2013-066Q,2026-07-19T06:09:25.024896,14.69547500,.01278689,97.6463,38.6950,335.1393,24.3688,0,U,39430,999,67462,.86687458E-4,.53E-5,0
